OBJECT_NAME,OBJECT_ID,EPOCH,MEAN_MOTION,ECCENTRICITY,INCLINATION,RA_OF_ASC_NODE,ARG_OF_PERICENTER,MEAN_ANOMALY,EPHEMERIS_TYPE,CLASSIFICATION_TYPE,NORAD_CAT_ID,ELEMENT_SET_NO,REV_AT_EPOCH,BSTAR,MEAN_MOTION_DOT,MEAN_MOTION_DDOT
PERSEUS-M1,2014-033AF,2026-05-13T09:06:01.692000,14.95509627,.00128449,97.9628,76.9475,57.4952,302.7508,0,U,40039,999,64543,.12396723E-3,.1314E-4,0
POLYITAN-1,2014-033AJ,2026-05-13T12:20:00.595392,15.32029062,.00053873,98.0972,156.5277,263.8246,96.2380,0,U,40042,999,64828,.35415703E-3,.10871E-3,0
TIGRISAT,2014-033AK,2026-05-13T22:55:36.355296,14.85010197,.00493618,97.7791,284.7635,185.3200,174.7497,0,U,40043,999,64054,.16450427E-3,.1378E-4,0
AEROCUBE 6A,2014-033AM,2026-05-13T22:54:52.522848,14.97717186,.00402754,97.7216,301.2842,128.6075,231.8765,0,U,40045,999,64149,.39279036E-3,.4621E-4,0
AEROCUBE 6B,2014-033AN,2026-05-13T22:09:36.192384,14.99137288,.00380329,97.7169,300.9742,122.1802,238.3119,0,U,40046,999,64162,.34699088E-3,.4222E-4,0
CANX-4,2014-034C,2026-05-13T21:40:15.056256,14.81198416,.00139196,98.3169,7.9513,118.4590,241.8025,0,U,40055,999,63945,.78821625E-4,.557E-5,0
CANX-5,2014-034D,2026-05-13T21:38:33.866304,14.81215470,.00139314,98.3170,7.9915,118.6568,241.6046,0,U,40056,999,63026,.79372611E-4,.561E-5,0
UKUBE-1,2014-037F,2026-05-13T18:48:44.795520,15.12981553,.00004034,98.4243,133.4590,69.6193,290.5078,0,U,40074,999,64335,.2734955E-3,.4748E-4,0
BRITE-PL2 (HEWELIUSZ),2014-049B,2026-05-13T18:12:43.661088,14.94458910,.00131773,97.9059,245.5044,219.5014,140.5247,0,U,40119,999,63630,.74274626E-4,.742E-5,0
AEROCUBE 5C,2015-058B,2026-05-13T00:47:04.157664,14.91248892,.01297956,64.7690,11.9373,77.0915,284.4657,0,U,40965,999,36041,.18717417E-3,.2014E-4,0
AEROCUBE 7,2015-058C,2026-05-13T20:44:26.189664,14.95451007,.01196194,64.7635,352.3014,75.4661,285.9687,0,U,40966,999,36082,.25043838E-3,.3024E-4,0
FOX-1A (AO-85),2015-058D,2026-05-13T22:34:51.054816,14.90760721,.01290101,64.7770,25.3935,70.0187,291.4765,0,U,40967,999,10846,.19957293E-3,.2126E-4,0
SINOD-D 1,2015-058E,2026-05-13T15:29:43.117152,14.95627628,.01174999,64.7765,7.0603,66.9245,294.4206,0,U,40968,999,11149,.24469432E-3,.295E-4,0
SNAP-3 ALICE,2015-058G,2026-05-13T12:55:15.687264,15.53456347,.00328579,64.7533,223.0163,30.3097,329.9937,0,U,40970,999,11149,.86050654E-3,.56333E-3,0
LMRST-SAT,2015-058H,2026-05-13T22:54:40.113216,14.90386337,.01307982,64.7775,21.6245,72.0456,289.4864,0,U,40971,999,10845,.20282487E-3,.2151E-4,0
SNAP-3 EDDIE,2015-058J,2026-05-13T22:34:43.069728,15.54642492,.00333771,64.7452,212.6098,33.7569,326.5690,0,U,40972,999,11369,.85491778E-3,.58527E-3,0
PROPCUBE 3,2015-058K,2026-05-13T22:33:30.696768,14.94016103,.01229514,64.7699,359.5181,73.5537,287.9048,0,U,40973,999,10968,.21867679E-3,.2533E-4,0
BISONSAT,2015-058L,2026-05-13T19:00:31.046400,15.15476100,.00787142,64.7593,284.7776,62.0772,298.8293,0,U,40974,999,11040,.39045396E-3,.7824E-4,0
SNAP-3 JIMI,2015-058M,2026-05-12T23:16:42.727008,15.01929999,.01049345,64.7659,331.1663,69.9706,291.2672,0,U,40975,999,10893,.29162938E-3,.4121E-4,0
PROPCUBE 1 (FLORA),2015-058N,2026-05-13T22:41:08.688480,14.89019684,.01295983,64.7761,41.3437,74.3283,287.2083,0,U,40976,999,11116,.19661385E-3,.1995E-4,0
SINOD-D 3,2015-058P,2026-05-13T16:45:00.492768,14.93743310,.01180858,64.7741,23.4958,71.9182,289.4753,0,U,40977,999,10960,.24069192E-3,.2753E-4,0
HORYU-4,2016-012D,2026-05-13T16:32:51.459936,15.78201025,.00053359,30.9895,328.5167,30.7718,329.3251,0,U,41340,999,56533,.72994622E-3,.13275E-2,0
RAVAN,2016-067B,2026-05-13T05:57:19.806624,15.51427623,.00072782,97.9946,18.8757,119.3669,240.8309,0,U,41849,999,52227,.45193751E-3,.26611E-3,0
CELTEE 1,2016-067C,2026-05-13T21:32:59.266752,15.19330583,.0001741,98.0722,358.1286,58.9739,301.1664,0,U,41850,999,52067,.17858629E-3,.3695E-4,0
OPTICUBE 04,2016-067D,2026-05-13T13:04:21.415584,15.09506837,.00144783,98.0736,344.0184,231.8103,128.1822,0,U,41851,999,51994,.87755838E-4,.1338E-4,0
AEROCUBE 8D,2016-067E,2026-05-13T08:38:00.716928,15.23894158,.00019706,98.0733,0.8881,244.2585,115.8447,0,U,41852,999,52076,.18604888E-3,.441E-4,0
AEROCUBE 8C,2016-067F,2026-05-13T14:05:35.846880,15.24134619,.000558,98.0604,358.4058,164.8366,195.3038,0,U,41853,999,52079,.19897103E-3,.4758E-4,0
CORVUS BC2,2017-042X,2026-05-13T10:46:44.431968,15.06068489,.00119542,97.4037,296.1630,225.6055,134.4195,0,U,42846,999,48183,.15033065E-3,.2138E-4,0
CORVUS BC1,2017-042Y,2026-05-13T10:44:39.667776,15.06240163,.00113464,97.4069,296.9530,199.4695,160.6101,0,U,42847,999,48186,.1451298E-3,.2072E-4,0
MAKERSAT 0,2017-073D,2026-05-13T14:43:18.147072,15.30593809,.01115762,97.4683,15.8945,36.9242,323.9613,0,U,43016,999,46117,.4817483E-3,.17217E-3,0
