PERSEUS-M1              
1 40039U 14033AF  26133.37918625  .00001314  00000+0  12397-3 0  9996
2 40039  97.9628  76.9475 0012844  57.4952 302.7508 14.95509627645433
POLYITAN-1              
1 40042U 14033AJ  26133.51389578  .00010871  00000+0  35416-3 0  9990
2 40042  98.0972 156.5277 0005387 263.8246  96.2380 15.32029062648280
TIGRISAT                
1 40043U 14033AK  26133.95528189  .00001378  00000+0  16450-3 0  9991
2 40043  97.7791 284.7635 0049361 185.3200 174.7497 14.85010197640544
AEROCUBE 6A             
1 40045U 14033AM  26133.95477457  .00004621  00000+0  39279-3 0  9992
2 40045  97.7216 301.2842 0040275 128.6075 231.8765 14.97717186641491
AEROCUBE 6B             
1 40046U 14033AN  26133.92333556  .00004222  00000+0  34699-3 0  9999
2 40046  97.7169 300.9742 0038032 122.1802 238.3119 14.99137288641620
CANX-4                  
1 40055U 14034C   26133.90295204  .00000557  00000+0  78822-4 0  9999
2 40055  98.3169   7.9513 0013919 118.4590 241.8025 14.81198416639450
CANX-5                  
1 40056U 14034D   26133.90178086  .00000561  00000+0  79373-4 0  9995
2 40056  98.3170   7.9915 0013931 118.6568 241.6046 14.81215470630261
UKUBE-1                 
1 40074U 14037F   26133.78385180  .00004748  00000+0  27350-3 0  9997
2 40074  98.4243 133.4590 0000403  69.6193 290.5078 15.12981553643355
BRITE-PL2 (HEWELIUSZ)   
1 40119U 14049B   26133.75883867  .00000742  00000+0  74275-4 0  9991
2 40119  97.9059 245.5044 0013177 219.5014 140.5247 14.94458910636307
AEROCUBE 5C             
1 40965U 15058B   26133.03268701  .00002014  00000+0  18717-3 0  9998
2 40965  64.7690  11.9373 0129795  77.0915 284.4657 14.91248892360412
AEROCUBE 7              
1 40966U 15058C   26133.86419201  .00003024  00000+0  25044-3 0  9996
2 40966  64.7635 352.3014 0119619  75.4661 285.9687 14.95451007360822
FOX-1A (AO-85)          
1 40967U 15058D   26133.94086869  .00002126  00000+0  19957-3 0  9994
2 40967  64.7770  25.3935 0129010  70.0187 291.4765 14.90760721108462
SINOD-D 1               
1 40968U 15058E   26133.64563793  .00002950  00000+0  24469-3 0  9997
2 40968  64.7765   7.0603 0117499  66.9245 294.4206 14.95627628111496
SNAP-3 ALICE            
1 40970U 15058G   26133.53837601  .00056333  00000+0  86051-3 0  9999
2 40970  64.7533 223.0163 0032857  30.3097 329.9937 15.53456347111495
LMRST-SAT               
1 40971U 15058H   26133.95463094  .00002151  00000+0  20282-3 0  9990
2 40971  64.7775  21.6245 0130798  72.0456 289.4864 14.90386337108454
SNAP-3 EDDIE            
1 40972U 15058J   26133.94077627  .00058527  00000+0  85492-3 0  9995
2 40972  64.7452 212.6098 0033377  33.7569 326.5690 15.54642492113699
PROPCUBE 3              
1 40973U 15058K   26133.93993862  .00002533  00000+0  21868-3 0  9996
2 40973  64.7699 359.5181 0122951  73.5537 287.9048 14.94016103109689
BISONSAT                
1 40974U 15058L   26133.79202600  .00007824  00000+0  39045-3 0  9998
2 40974  64.7593 284.7776 0078714  62.0772 298.8293 15.15476100110409
SNAP-3 JIMI             
1 40975U 15058M   26132.96993897  .00004121  00000+0  29163-3 0  9999
2 40975  64.7659 331.1663 0104934  69.9706 291.2672 15.01929999108939
PROPCUBE 1 (FLORA)      
1 40976U 15058N   26133.94523945  .00001995  00000+0  19661-3 0  9990
2 40976  64.7761  41.3437 0129598  74.3283 287.2083 14.89019684111162
SINOD-D 3               
1 40977U 15058P   26133.69792237  .00002753  00000+0  24069-3 0  9996
2 40977  64.7741  23.4958 0118085  71.9182 289.4753 14.93743310109609
HORYU-4                 
1 41340U 16012D   26133.68948449  .00132750  00000+0  72995-3 0  9991
2 41340  30.9895 328.5167 0005335  30.7718 329.3251 15.78201025565330
RAVAN                   
1 41849U 16067B   26133.24814591  .00026611  00000+0  45194-3 0  9996
2 41849  97.9946  18.8757 0007278 119.3669 240.8309 15.51427623522277
CELTEE 1                
1 41850U 16067C   26133.89790818  .00003695  00000+0  17859-3 0  9998
2 41850  98.0722 358.1286 0001741  58.9739 301.1664 15.19330583520674
OPTICUBE 04             
1 41851U 16067D   26133.54469231  .00001338  00000+0  87756-4 0  9999
2 41851  98.0736 344.0184 0014478 231.8103 128.1822 15.09506837519946
AEROCUBE 8D             
1 41852U 16067E   26133.35973052  .00004410  00000+0  18605-3 0  9990
2 41852  98.0733   0.8881 0001970 244.2585 115.8447 15.23894158520760
AEROCUBE 8C             
1 41853U 16067F   26133.58722045  .00004758  00000+0  19897-3 0  9999
2 41853  98.0604 358.4058 0005580 164.8366 195.3038 15.24134619520793
CORVUS BC2              
1 42846U 17042X   26133.44912537  .00002138  00000+0  15033-3 0  9996
2 42846  97.4037 296.1630 0011954 225.6055 134.4195 15.06068489481836
CORVUS BC1              
1 42847U 17042Y   26133.44768134  .00002072  00000+0  14513-3 0  9998
2 42847  97.4069 296.9530 0011346 199.4695 160.6101 15.06240163481864
MAKERSAT 0              
1 43016U 17073D   26133.61340448  .00017217  00000+0  48175-3 0  9992
2 43016  97.4683  15.8945 0111576  36.9242 323.9613 15.30593809461171
